{
  "type": "FeatureCollection",
  "features": [
    {
      "type": "Feature",
      "properties": {
        "norad_id": 56564,
        "name": "BEIDOU-3 G4 (C62)",
        "group": "beidou",
        "lat": 0.35765611315288703,
        "lon": -31.867739410054863,
        "alt_km": 35797.03135899646,
        "timestamp": "2025-12-12T05:47:29.036524+00:00",
        "meta_object_name": "BEIDOU-3 G4 (C62)",
        "meta_object_id": "2023-066A",
        "meta_epoch": "2025-12-11T22:50:01.032576",
        "meta_mean_motion": 1.00271539,
        "meta_eccentricity": 0.00029183,
        "meta_inclination": 0.8161,
        "meta_ra_of_asc_node": 301.9982,
        "meta_arg_of_pericenter": 233.0581,
        "meta_mean_anomaly": 48.4183,
        "meta_ephemeris_type": 0,
        "meta_classification_type": "U",
        "meta_norad_cat_id": 56564,
        "meta_element_set_no": 999,
        "meta_rev_at_epoch": 951,
        "meta_bstar": 0,
        "meta_mean_motion_dot": -1.02e-06,
        "meta_mean_motion_ddot": 0,
        "tle_line1": "1 56564U 23066A   25345.95140084 -.00000102  00000+0  00000+0 0  9995",
        "tle_line2": "2 56564   0.8161 301.9982 0002918 233.0581  48.4183  1.00271539  9519"
      },
      "geometry": {
        "type": "Point",
        "coordinates": [
          -31.867739410054863,
          0.35765611315288703
        ]
      }
    },
    {
      "type": "Feature",
      "properties": {
        "norad_id": 58654,
        "name": "BEIDOU-3 M28 (C50)",
        "group": "beidou",
        "lat": -37.8886964822736,
        "lon": -79.18141870125439,
        "alt_km": 21527.83242331022,
        "timestamp": "2025-12-12T05:47:29.036536+00:00",
        "meta_object_name": "BEIDOU-3 M28 (C50)",
        "meta_object_id": "2023-207A",
        "meta_epoch": "2025-12-11T21:37:33.991968",
        "meta_mean_motion": 1.86229651,
        "meta_eccentricity": 0.00023562,
        "meta_inclination": 55.5838,
        "meta_ra_of_asc_node": 68.6297,
        "meta_arg_of_pericenter": 269.3243,
        "meta_mean_anomaly": 90.6691,
        "meta_ephemeris_type": 0,
        "meta_classification_type": "U",
        "meta_norad_cat_id": 58654,
        "meta_element_set_no": 999,
        "meta_rev_at_epoch": 1335,
        "meta_bstar": 0,
        "meta_mean_motion_dot": -6.9e-07,
        "meta_mean_motion_ddot": 0,
        "tle_line1": "1 58654U 23207A   25345.90108787 -.00000069  00000+0  00000+0 0  9995",
        "tle_line2": "2 58654  55.5838  68.6297 0002356 269.3243  90.6691  1.86229651 13350"
      },
      "geometry": {
        "type": "Point",
        "coordinates": [
          -79.18141870125439,
          -37.8886964822736
        ]
      }
    },
    {
      "type": "Feature",
      "properties": {
        "norad_id": 58655,
        "name": "BEIDOU-3 M26 (C48)",
        "group": "beidou",
        "lat": 3.1087866804023823,
        "lon": 70.7425044577526,
        "alt_km": 21531.25982248241,
        "timestamp": "2025-12-12T05:47:29.036547+00:00",
        "meta_object_name": "BEIDOU-3 M26 (C48)",
        "meta_object_id": "2023-207B",
        "meta_epoch": "2025-12-11T03:52:58.066752",
        "meta_mean_motion": 1.86231203,
        "meta_eccentricity": 0.00037801,
        "meta_inclination": 55.5852,
        "meta_ra_of_asc_node": 68.6411,
        "meta_arg_of_pericenter": 255.3563,
        "meta_mean_anomaly": 104.6233,
        "meta_ephemeris_type": 0,
        "meta_classification_type": "U",
        "meta_norad_cat_id": 58655,
        "meta_element_set_no": 999,
        "meta_rev_at_epoch": 1332,
        "meta_bstar": 0,
        "meta_mean_motion_dot": -6.3e-07,
        "meta_mean_motion_ddot": 0,
        "tle_line1": "1 58655U 23207B   25345.16178318 -.00000063  00000+0  00000+0 0  9995",
        "tle_line2": "2 58655  55.5852  68.6411 0003780 255.3563 104.6233  1.86231203 13328"
      },
      "geometry": {
        "type": "Point",
        "coordinates": [
          70.7425044577526,
          3.1087866804023823
        ]
      }
    },
    {
      "type": "Feature",
      "properties": {
        "norad_id": 61186,
        "name": "BEIDOU-3 M25 (C47)",
        "group": "beidou",
        "lat": 44.532653873953834,
        "lon": 84.44602943815775,
        "alt_km": 21537.930179012805,
        "timestamp": "2025-12-12T05:47:29.036559+00:00",
        "meta_object_name": "BEIDOU-3 M25 (C47)",
        "meta_object_id": "2024-168B",
        "meta_epoch": "2025-12-09T12:38:32.089056",
        "meta_mean_motion": 1.86229941,
        "meta_eccentricity": 0.0005432,
        "meta_inclination": 54.6447,
        "meta_ra_of_asc_node": 308.8306,
        "meta_arg_of_pericenter": 296.174,
        "meta_mean_anomaly": 164.5169,
        "meta_ephemeris_type": 0,
        "meta_classification_type": "U",
        "meta_norad_cat_id": 61186,
        "meta_element_set_no": 999,
        "meta_rev_at_epoch": 825,
        "meta_bstar": 0,
        "meta_mean_motion_dot": -7.8e-07,
        "meta_mean_motion_ddot": 0,
        "tle_line1": "1 61186U 24168B   25343.52676029 -.00000078  00000+0  00000+0 0  9991",
        "tle_line2": "2 61186  54.6447 308.8306 0005432 296.1740 164.5169  1.86229941  8254"
      },
      "geometry": {
        "type": "Point",
        "coordinates": [
          84.44602943815775,
          44.532653873953834
        ]
      }
    },
    {
      "type": "Feature",
      "properties": {
        "norad_id": 61187,
        "name": "BEIDOU-3 M27 (C49)",
        "group": "beidou",
        "lat": -52.176894169196565,
        "lon": -165.21121249800527,
        "alt_km": 21532.611690565944,
        "timestamp": "2025-12-12T05:47:29.036571+00:00",
        "meta_object_name": "BEIDOU-3 M27 (C49)",
        "meta_object_id": "2024-168C",
        "meta_epoch": "2025-12-10T08:23:50.553888",
        "meta_mean_motion": 1.86230151,
        "meta_eccentricity": 0.00023508,
        "meta_inclination": 54.6394,
        "meta_ra_of_asc_node": 308.7857,
        "meta_arg_of_pericenter": 335.0567,
        "meta_mean_anomaly": 92.4403,
        "meta_ephemeris_type": 0,
        "meta_classification_type": "U",
        "meta_norad_cat_id": 61187,
        "meta_element_set_no": 999,
        "meta_rev_at_epoch": 574,
        "meta_bstar": 0,
        "meta_mean_motion_dot": -8.2e-07,
        "meta_mean_motion_ddot": 0,
        "tle_line1": "1 61187U 24168C   25344.34989067 -.00000082  00000+0  00000+0 0  9997",
        "tle_line2": "2 61187  54.6394 308.7857 0002350 335.0567  92.4403  1.86230151  5748"
      },
      "geometry": {
        "type": "Point",
        "coordinates": [
          -165.21121249800527,
          -52.176894169196565
        ]
      }
    }
  ]
}